STARLINK-36456          
1 67357U 26003Z   26011.94089612 -.00002702  85427-5  00000+0 0  9990
2 67357  43.0100  74.1123 0008600 321.9700  11.3500 16.01646204    13
STARLINK-36466          
1 67358U 26003AA  26011.94089612 -.00002702  85427-5  00000+0 0  9991
2 67358  43.0100  74.1123 0008600 321.9700  11.3500 16.01646204    14
STARLINK-36499          
1 67359U 26003AB  26011.94089612 -.00002702  85427-5  00000+0 0  9992
2 67359  43.0100  74.1123 0008600 321.9700  11.3500 16.01646204    15
STARLINK-36469          
1 67360U 26003AC  26011.94089612 -.00002702  85427-5  00000+0 0  9994
2 67360  43.0100  74.1123 0008600 321.9700  11.3500 16.01646204    17
STARLINK-35306          
1 67361U 26003AD  26011.94089612 -.00002702  85427-5  00000+0 0  9995
2 67361  43.0100  74.1123 0008600 321.9700  11.3500 16.01646204    18
STARLINK-36428          
1 67362U 26003AE  26011.94089612 -.00002702  85427-5  00000+0 0  9996
2 67362  43.0100  74.1123 0008600 321.9700  11.3500 16.01646204    19
SHIJIAN-29B (SJ-29B)    
1 67403U 25315C   26015.79149318 -.00000052  00000+0  00000+0 0  9998
2 67403   3.0119  99.1418 0000845 329.0703  45.0544  1.00271809   166
YAOGAN-50 01            
1 67433U 26006A   26015.96810209  .00000891  00000+0  26428-3 0  9998
2 67433 141.9985 199.6984 0164934 122.2614 239.4205 14.21837587   341
CZ-6A R/B               
1 67434U 26006B   26013.71733058  .00000541  00000+0  30805-4 0  9993
2 67434 142.0438 188.1412 0201725  82.0696 280.2897 14.62247694    24
HULIANWANG DIGUI 18A    
1 67435U 26007A   26014.04715434 -.00000128  00000+0  14297-4 0  9999
2 67435  50.0150 292.8601 0008512 274.9717  85.0211 13.92612775    65
HULIANWANG DIGUI 18B    
1 67436U 26007B   26013.90365492 -.00000130  00000+0  12827-4 0  9999
2 67436  50.0165 293.4472 0009652 261.3170  98.6636 13.92454399    49
HULIANWANG DIGUI 18C    
1 67437U 26007C   26015.19541657 -.00000057  00000+0  69628-4 0  9991
2 67437  50.0030 288.2738 0008142 271.3328  88.6639 13.92511123   228
